2024-092F               
1 59778U 24092F   26068.91303411  .00025723  00000+0  79143-3 0  9992
2 59778  97.6418 198.4543 0008646 142.6506 217.5339 15.33614440100535
STARLINK-35657          
1 66399U 25257V   26068.71592492  .00019300  00000+0  66214-3 0  9999
2 66399  53.1573 217.1722 0000749 112.2619 247.8461 15.30196269 19726
