[{"OBJECT_NAME":"OBJECT F","OBJECT_ID":"2024-092F","EPOCH":"2026-03-09T21:54:46.147104","MEAN_MOTION":15.3361444,"ECCENTRICITY":0.00086458,"INCLINATION":97.6418,"RA_OF_ASC_NODE":198.4543,"ARG_OF_PERICENTER":142.6506,"MEAN_ANOMALY":217.5339,"EPHEMERIS_TYPE":0,"CLASSIFICATION_TYPE":"U","NORAD_CAT_ID":59778,"ELEMENT_SET_NO":999,"REV_AT_EPOCH":10053,"BSTAR":0.0007914277,"MEAN_MOTION_DOT":0.00025723,"MEAN_MOTION_DDOT":0},{"OBJECT_NAME":"STARLINK-35657","OBJECT_ID":"2025-257V","EPOCH":"2026-03-09T17:10:55.913088","MEAN_MOTION":15.30196269,"ECCENTRICITY":7.493e-5,"INCLINATION":53.1573,"RA_OF_ASC_NODE":217.1722,"ARG_OF_PERICENTER":112.2619,"MEAN_ANOMALY":247.8461,"EPHEMERIS_TYPE":0,"CLASSIFICATION_TYPE":"U","NORAD_CAT_ID":66399,"ELEMENT_SET_NO":999,"REV_AT_EPOCH":1972,"BSTAR":0.00066214276,"MEAN_MOTION_DOT":0.000193,"MEAN_MOTION_DDOT":0}]
